{
  "norad_id": 46342,
  "name": "STARLINK-1762",
  "history": [
    {
      "epoch": "2026-03-28T22:31:04.238400",
      "apogee_km": 473.6908174432929,
      "perigee_km": 472.7480707965815,
      "latitude_deg": -45.98240409485945,
      "longitude_deg": -15.72862399998121,
      "semi_major_axis_km": 6851.356444119937,
      "eccentricity": 6.88e-05,
      "inclination_deg": 53.1588,
      "raan_deg": 281.5567,
      "arg_perigee_deg": 50.5267,
      "mean_anomaly_deg": 309.5795,
      "mean_motion_rev_day": 15.30868611
    }
  ]
}